EUTELSAT 7 WEST A       
1 37816U 11051A   26065.22354854 -.00000065  00000+0  00000+0 0  9995
2 37816   0.0701  12.5541 0001004 226.4356 358.1081  1.00272171 52842
QUETZSAT 1              
1 37826U 11054A   26065.17266987 -.00000247  00000+0  00000+0 0  9994
2 37826   0.0497 292.4662 0002808  72.1609 144.4120  1.00270897 48846
INTELSAT 18 (IS-18)     
1 37834U 11056A   26065.26072870  .00000048  00000+0  00000+0 0  9999
2 37834   0.0379 265.9124 0001921  78.0185  93.9005  1.00274400 52772
EUTELSAT 16A            
1 37836U 11057A   26065.22814190  .00000099  00000+0  00000+0 0  9993
2 37836   0.0560 357.1575 0005475 349.8259 275.0817  1.00272292  6308
VIASAT-1                
1 37843U 11059A   26064.83552091 -.00000030  00000+0  00000+0 0  9994
2 37843   0.0170 166.7450 0002229 186.7509 355.7291  1.00273952 46286
ASIASAT 7               
1 37933U 11069A   26065.03201437 -.00000339  00000+0  00000+0 0  9995
2 37933   0.0083 144.1856 0000963 203.7823 292.7495  1.00268057 43824
BEIDOU-2 IGSO-5         
1 37948U 11073A   26063.54783174 -.00000153  00000+0  00000+0 0  9997
2 37948  47.8676 272.8369 0108588 221.1171 320.7210  1.00272598 52087
LUCH-5A                 
1 37951U 11074B   26065.25812869 -.00000050  00000+0  00000+0 0  9992
2 37951   8.4918  75.3187 0003890 247.7042 101.0013  1.00275932 52017
NIGCOMSAT 1R            
1 38014U 11077A   26064.36503281  .00000136  00000+0  00000+0 0  9996
2 38014   0.0650 252.7202 0002680  78.1374   6.2020  1.00277927 51916
WGS F4 (USA 233)        
1 38070U 12003A   26064.74336875 -.00000221  00000+0  00000+0 0  9999
2 38070   0.0097 151.3509 0000614 134.3109 233.7866  1.00272851 43112
SES-4                   
1 38087U 12007A   26064.43622072 -.00000178  00000+0  00000+0 0  9995
2 38087   0.0359  66.5072 0002347 256.9214 334.7775  1.00260475 51182
BEIDOU-2 G5             
1 38091U 12008A   26065.09406797  .00000051  00000+0  00000+0 0  9997
2 38091   3.3168  70.3057 0014017 251.3989 294.8001  1.00277131 51334
MUOS-1                  
1 38093U 12009A   26065.06269450 -.00000131  00000+0  00000+0 0  9990
2 38093   5.2646  47.1936 0057216 357.7917  41.3597  1.00273621 51410
INTELSAT 22 (IS-22)     
1 38098U 12011A   26065.09666799 -.00000064  00000+0  00000+0 0  9993
2 38098   0.0028 173.3912 0001668 192.4141 264.9179  1.00271310  6154
APSTAR-7                
1 38107U 12013A   26065.16886163 -.00000106  00000+0  00000+0 0  9990
2 38107   0.0091 171.8481 0002371 174.5566 314.7604  1.00271830 50774
YAHSAT 1B               
1 38245U 12016A   26065.24350596  .00000121  00000+0  00000+0 0  9997
2 38245   0.0880  91.6596 0003262 259.9703 307.5907  1.00273726 44573
AEHF-2 (USA 235)        
1 38254U 12019A   26065.20155875 -.00000138  00000+0  00000+0 0  9998
2 38254   6.4114  58.2348 0003144 276.8421 244.9087  1.00273275  5952
